     2.11           N: GPS NAV DATA                         RINEX VERSION / TYPE
teqc  2016Apr1      IGN                 20240204 16:18:02UTCPGM / RUN BY / DATE
    18                                                      LEAP SECONDS
    1.7695D-08 -7.4506D-09 -5.9605D-08  1.1921D-07          ION ALPHA
    1.2902D+05 -1.1469D+05  6.5536D+04 -3.2768D+05          ION BETA
    9.313225746155D-10-2.664535259100D-15   233472     2300 DELTA-UTC: A0,A1,T,W
                                                            END OF HEADER
16 24  2  4 12  0  0.0-3.699618391693D-04 8.071765478235D-12 0.000000000000D+00
    7.800000000000D+01 7.921875000000D+01 4.290535860898D-09-1.651672728765D+00
    4.043802618980D-06 1.399148022756D-02 8.832663297653D-06 5.153728897095D+03
    4.320000000000D+04 2.197921276093D-07 2.020074550796D+00-1.192092895508D-07
    9.625535300124D-01 2.074375000000D+02 8.218681464272D-01-7.727107579332D-09
   -2.035799084918D-10 1.000000000000D+00 2.300000000000D+03 0.000000000000D+00
    2.000000000000D+00 0.000000000000D+00-1.024454832077D-08 7.800000000000D+01
    4.126200000000D+04 4.000000000000D+00
18 24  2  4 13 14 40.0-5.480577237904D-04-8.640199666843D-12 0.000000000000D+00
    1.550000000000D+02-4.493750000000D+01 4.219104314058D-09 2.262852864630D+00
   -2.292916178703D-06 3.833243390545D-03 3.863126039505D-06 5.153629051208D+03
    4.768000000000D+04-9.685754776001D-08-2.238030143807D+00 7.078051567078D-08
    9.744611170284D-01 3.122187500000D+02-3.021565450729D+00-8.110694985859D-09
   -6.250260348431D-11 1.000000000000D+00 2.300000000000D+03 0.000000000000D+00
    2.000000000000D+00 0.000000000000D+00-8.381903171539D-09 1.550000000000D+02
    4.051800000000D+04 4.000000000000D+00
26 24  2  4 13 59 44.0 1.936838962138D-04-3.865352482535D-12 0.000000000000D+00
    3.400000000000D+01 6.381250000000D+01 5.172001148894D-09 2.253520585435D-01
    3.419816493988D-06 8.809224935248D-03 8.501112461090D-06 5.153583724976D+03
    5.038400000000D+04 5.587935447693D-08 1.856337842688D+00 1.005828380585D-07
    9.315635371662D-01 1.970312500000D+02 5.262713333363D-01-8.362491188467D-09
   -3.810873023872D-10 1.000000000000D+00 2.300000000000D+03 0.000000000000D+00
    2.000000000000D+00 0.000000000000D+00 6.984919309616D-09 3.400000000000D+01
    4.321800000000D+04 4.000000000000D+00
20 24  2  4 13 59 44.0 3.887619823217D-04-1.477928890381D-12 0.000000000000D+00
    2.800000000000D+01-8.193750000000D+01 4.466971781590D-09-3.033299443497D+00
   -4.243105649948D-06 3.914761822671D-03 6.658956408501D-06 5.153717769623D+03
    5.038400000000D+04-2.421438694000D-08-1.383165998599D+00-6.146728992462D-08
    9.520032895926D-01 2.451562500000D+02-2.643243149641D+00-8.046049435969D-09
    1.167905790821D-10 1.000000000000D+00 2.300000000000D+03 0.000000000000D+00
    2.000000000000D+00 0.000000000000D+00-8.381903171539D-09 2.800000000000D+01
    4.321800000000D+04 4.000000000000D+00
 3 24  2  4 13 59 44.0 1.715556718409D-04 2.478373062331D-11 0.000000000000D+00
    2.000000000000D+00-9.415625000000D+01 3.806587131062D-09 1.477580108422D+00
   -4.880130290985D-06 5.064634839073D-03 7.944181561470D-06 5.153790388107D+03
    5.038400000000D+04-1.210719347000D-07-1.206367146582D+00 1.303851604462D-08
    9.825800519689D-01 2.367812500000D+02 1.070775077600D+00-7.765680614625D-09
    2.110802209099D-10 1.000000000000D+00 2.300000000000D+03 0.000000000000D+00
    2.000000000000D+00 0.000000000000D+00 1.862645149231D-09 2.000000000000D+00
    4.801800000000D+04 4.000000000000D+00
 6 24  2  4 14  0  0.0 4.199524410069D-04-1.432454155292D-11 0.000000000000D+00
    2.500000000000D+01-3.065625000000D+01 3.863017905559D-09 2.746549776708D+00
   -1.519918441772D-06 3.136852872558D-03 3.438442945480D-06 5.153558458328D+03
    5.040000000000D+04 4.656612873077D-08-2.243731742673D+00-2.235174179077D-08
    9.896787814880D-01 3.302812500000D+02-7.822312895416D-01-7.879614294382D-09
   -3.750156088445D-11 1.000000000000D+00 2.300000000000D+03 0.000000000000D+00
    2.000000000000D+00 0.000000000000D+00 3.725290298462D-09 2.500000000000D+01
    4.323000000000D+04
28 24  2  4 14  0  0.0-1.200400292873D-04-1.227817847393D-11 0.000000000000D+00
    2.090000000000D+02 2.531250000000D+00 4.788413665580D-09 3.802873540947D-01
    2.421438694000D-07 6.879622815177D-04 7.720664143562D-06 5.153579597473D+03
    5.040000000000D+04 1.303851604462D-08 8.518752441147D-01 3.911554813385D-08
    9.613332471370D-01 2.321562500000D+02 1.720182026520D+00-7.976046489944D-09
   -1.478633049334D-10 1.000000000000D+00 2.300000000000D+03 0.000000000000D+00
    2.000000000000D+00 0.000000000000D+00-9.313225746155D-09 2.090000000000D+02
    4.323000000000D+04
32 24  2  4 14  0  0.0-6.096963770688D-04-2.273736754432D-12 0.000000000000D+00
    4.500000000000D+01-2.318750000000D+01 4.742697345961D-09-8.300211000647D-01
   -1.039355993271D-06 7.496709818952D-03 7.942318916321D-06 5.153625425339D+03
    5.040000000000D+04-2.048909664154D-08-1.713820847632D-01 1.750886440277D-07
    9.615631783603D-01 2.273125000000D+02-2.186526604558D+00-8.053906874750D-09
    3.296565798117D-10 1.000000000000D+00 2.300000000000D+03 0.000000000000D+00
    2.000000000000D+00 0.000000000000D+00 4.656612873077D-10 4.500000000000D+01
    4.323000000000D+04
24 24  2  4 14  0  0.0-4.260833375156D-04-6.480149750132D-12 0.000000000000D+00
    4.400000000000D+01-2.750000000000D+00 5.291291849119D-09 2.904077183157D+00
   -2.961605787277D-07 1.508911733981D-02 7.271766662598D-06 5.153725660324D+03
    5.040000000000D+04-2.607703208923D-08 7.911764937795D-01-2.402812242508D-07
    9.339129996936D-01 2.219375000000D+02 9.663822528769D-01-8.063549827853D-09
   -1.350056177962D-10 1.000000000000D+00 2.300000000000D+03 0.000000000000D+00
    2.000000000000D+00 0.000000000000D+00 2.328306436539D-09 4.400000000000D+01
    4.323000000000D+04
11 24  2  4 14  0  0.0-5.642957985401D-04-1.318767317571D-11 0.000000000000D+00
    1.880000000000D+02-3.768750000000D+01 4.287678656567D-09-2.380782503365D+00
   -1.862645149231D-06 1.245850580744D-03 3.617256879807D-06 5.153661998749D+03
    5.040000000000D+04-2.048909664154D-08-2.208141541021D+00-4.097819328308D-08
    9.660922995878D-01 3.123437500000D+02-2.473786920458D+00-8.128195894130D-09
    1.285767846360D-11 1.000000000000D+00 2.300000000000D+03 0.000000000000D+00
    2.000000000000D+00 0.000000000000D+00-8.381903171539D-09 7.000000000000D+02
    4.323000000000D+04
12 24  2  4 14  0  0.0-4.746811464429D-04-3.751665644813D-12 0.000000000000D+00
    8.900000000000D+01 5.587500000000D+01 4.372325168589D-09 1.152598645880D+00
    2.779066562653D-06 8.955299272202D-03 8.778646588326D-06 5.153717140198D+03
    5.040000000000D+04-1.601874828339D-07 2.002022226547D+00-8.568167686462D-08
    9.629920616504D-01 2.127812500000D+02 1.409882851623D+00-7.984975347597D-09
   -3.146559679479D-10 1.000000000000D+00 2.300000000000D+03 0.000000000000D+00
    2.000000000000D+00 0.000000000000D+00-1.257285475731D-08 8.900000000000D+01
    4.323000000000D+04
19 24  2  4 14  0  0.0 4.360079765320D-04 5.229594535194D-12 0.000000000000D+00
    4.700000000000D+01 6.962500000000D+01 4.384468343943D-09 4.964090733162D-01
    3.393739461899D-06 9.449500357732D-03 5.090609192848D-06 5.153684436798D+03
    5.040000000000D+04 9.313225746155D-08 3.085416546681D+00-1.005828380585D-07
    9.700869714905D-01 2.881562500000D+02 2.476264062086D+00-8.230342629645D-09
   -6.250260031759D-11 1.000000000000D+00 2.300000000000D+03 0.000000000000D+00
    2.000000000000D+00 0.000000000000D+00-1.536682248116D-08 4.700000000000D+01
    4.323000000000D+04
25 24  2  4 14  0  0.0 4.875347949564D-04 1.250555214938D-12 0.000000000000D+00
    2.800000000000D+01 5.775000000000D+01 4.741626202787D-09 1.037847806710D+00
    3.045424818993D-06 1.180159288924D-02 8.868053555489D-06 5.153619668961D+03
    5.040000000000D+04-1.713633537292D-07 1.916734345371D+00 5.960464477539D-08
    9.508165353366D-01 2.053125000000D+02 1.071973778045D+00-8.199269707632D-09
   -3.857303643162D-10 1.000000000000D+00 2.300000000000D+03 0.000000000000D+00
    2.000000000000D+00 0.000000000000D+00 5.587935447693D-09 2.800000000000D+01
    4.323000000000D+04
31 24  2  4 14  0  0.0-2.276487648487D-04-1.136868377216D-13 0.000000000000D+00
    6.500000000000D+01 5.437500000000D+00 4.954849419647D-09 1.002307762667D+00
    5.289912223816D-07 1.059273385908D-02 7.817521691322D-06 5.153670980453D+03
    5.040000000000D+04-5.587935447693D-08 9.072989985880D-01 1.173466444016D-07
    9.541833096334D-01 2.271562500000D+02 6.564077872762D-01-8.161054054767D-09
   -3.171560791770D-10 1.000000000000D+00 2.300000000000D+03 0.000000000000D+00
    2.000000000000D+00 0.000000000000D+00-1.350417733192D-08 6.500000000000D+01
    4.578000000000D+04
 3 24  2  4 14  0  0.0 1.715593971312D-04 2.478373062331D-11 0.000000000000D+00
    8.900000000000D+01-9.415625000000D+01 3.806587131062D-09 1.479911771626D+00
   -4.880130290985D-06 5.064636585303D-03 7.944181561470D-06 5.153790374756D+03
    5.040000000000D+04-1.210719347000D-07-1.206367307503D+00 1.303851604462D-08
    9.825800490430D-01 2.367812500000D+02 1.070777042299D+00-7.765680614625D-09
    2.110802209099D-10 1.000000000000D+00 2.300000000000D+03 0.000000000000D+00
    2.800000000000D+00 0.000000000000D+00 1.862645149231D-09 8.900000000000D+01
    4.321800000000D+04 4.000000000000D+00
10 24  2  4 14  0  0.0-7.199123501778D-05-1.477928890381D-12 0.000000000000D+00
    6.500000000000D+01-7.643750000000D+01 3.903734034763D-09 4.147048820772D-01
   -3.939494490623D-06 9.318029391579D-03 8.549541234970D-06 5.153690713882D+03
    5.040000000000D+04-1.024454832077D-07-1.208944664872D+00 1.806765794754D-07
    9.822663174834D-01 2.272187500000D+02-2.380560428011D+00-7.832469110920D-09
    1.728643433509D-10 1.000000000000D+00 2.300000000000D+03 0.000000000000D+00
    2.000000000000D+00 0.000000000000D+00 2.328306436539D-09 6.500000000000D+01
    4.321800000000D+04 4.000000000000D+00
